{"format":"tle-catalog-v1","generatedAt":"2026-06-25T16:01:17.978Z","count":6895,"entries":[{"name":"ALSAT-1N","line1":"1 41789U 16059G   26176.28764317  .00000768  00000+0  13734-3 0  9991","line2":"2 41789  97.8009 179.2779 0026201 158.8525 201.3771 14.69318034521199"},{"name":"CARTOSAT-2C","line1":"1 41599U 16040A   26176.29369559  .00003867  00000+0  18649-3 0  9993","line2":"2 41599  97.4486 236.1600 0010455 106.7662 253.4721 15.19247935554946"},{"name":"CAS-2T & KS-1Q","line1":"1 41847U 16066G   26176.20550696  .00001561  00000+0  22533-3 0  9998","line2":"2 41847  98.3820 251.8502 0342889 105.2370 258.6999 14.44718564505957"},{"name":"CHUBUSAT-2","line1":"1 41338U 16012B   26175.69175986  .00005055  00000+0  21740-3 0  9992","line2":"2 41338  30.9971 272.1387 0008719 154.5756 205.5315 15.20948863569566"},{"name":"CHUBUSAT-3","line1":"1 41339U 16012C   26175.69773942  .00003993  00000+0  18296-3 0  9990","line2":"2 41339  31.0054 281.8625 0009199 141.0993 219.0311 15.18612705569342"},{"name":"COSMOS 2507 (RODNIK-S *)","line1":"1 40920U 15050A   26176.28166917  .00000033  00000+0  16815-3 0  9997","line2":"2 40920  82.4922  74.6303 0009838 339.4450  20.6233 12.42926954487866"},{"name":"COSMOS 2508 (RODNIK-S *)","line1":"1 40921U 15050B   26176.31726385 -.00000003  00000+0 -93054-4 0  9993","line2":"2 40921  82.4874  73.1101 0014856   9.9955 350.1418 12.42914318487854"},{"name":"COSMOS 2509 (RODNIK-S *)","line1":"1 40922U 15050C   26176.25730624  .00000000  00000+0 -73051-4 0  9999","line2":"2 40922  82.4882  73.2506 0015484  26.4826 333.7042 12.42883806487883"},{"name":"DAMPE","line1":"1 41173U 15078A   26176.27399308  .00000941  00000+0  34168-4 0  9999","line2":"2 41173  97.4563 181.7810 0013508  52.1917 308.0544 15.30802890585783"},{"name":"ELEKTRO-L 2","line1":"1 41105U 15074A   26174.95372752 -.00000116  00000+0  00000+0 0  9995","line2":"2 41105   6.7110  70.4435 0000765 277.7123 252.7626  1.00271133 38579"},{"name":"FOX-1A (AO-85)","line1":"1 40967U 15058D   26175.73070169  .00001723  00000+0  16308-3 0  9992","line2":"2 40967  64.7739 255.5404 0130880  53.6729 307.6381 14.90997570114691"},{"name":"GAOFEN-3","line1":"1 41727U 16049A   26176.27058131  .00000019  00000+0  18926-4 0  9999","line2":"2 41727  98.4016 183.9347 0001571  97.6337 262.5031 14.42216336519810"},{"name":"HORYU-4","line1":"1 41340U 16012D   26175.92351499  .00887715  38476-3  12685-2 0  9996","line2":"2 41340  30.9835  21.9003 0008451 319.1648  40.8382 16.04340254572050"},{"name":"JILIN-1","line1":"1 40961U 15057D   26176.27177600  .00000780  00000+0  11414-3 0  9998","line2":"2 40961  97.6508 175.2370 0015590 233.9826 125.9942 14.78172160576800"},{"name":"LAPAN-A3","line1":"1 41603U 16040E   26176.28445649  .00003966  00000+0  12601-3 0  9995","line2":"2 41603  97.1489 172.1639 0009855 357.7807   2.3390 15.33152345556057"},{"name":"LINGQIAO VIDEO A","line1":"1 40959U 15057B   26176.28575360  .00000758  00000+0  11323-3 0  9995","line2":"2 40959  97.6625 170.6883 0015224 241.3447 118.6234 14.77402279576608"},{"name":"LINGQIAO VIDEO B","line1":"1 40960U 15057C   26176.26184420  .00000097  00000+0  20398-4 0  9997","line2":"2 40960  97.6590 171.8271 0015400 241.3594 118.6068 14.77506457576646"},{"name":"LQSAT","line1":"1 40958U 15057A   26176.26828914  .00000357  00000+0  57708-4 0  9991","line2":"2 40958  97.6685 169.2433 0015472 244.4737 115.4874 14.76790870576509"},{"name":"ORBCOMM FM108","line1":"1 41187U 15081J   26175.95764863  .00000420  00000+0  12507-3 0  9998","line2":"2 41187  47.0038 145.4578 0003137 251.0039 109.0507 14.58881881561212"},{"name":"ORBCOMM FM110","line1":"1 41182U 15081D   26175.84279752  .00000566  00000+0  15591-3 0  9996","line2":"2 41182  47.0030 325.2449 0002554 122.0857 238.0278 14.58890386558743"},{"name":"ORBCOMM FM112","line1":"1 41184U 15081F   26175.88148155  .00000362  00000+0  11272-3 0  9990","line2":"2 41184  46.9977 233.8630 0004057 248.5374 111.5080 14.58912487560079"},{"name":"ORBCOMM FM113","line1":"1 41185U 15081G   26175.85835780  .00000236  00000+0  86127-4 0  9997","line2":"2 41185  46.9996 234.3526 0002552 251.1934 108.8675 14.58864475560051"},{"name":"ORBCOMM FM114","line1":"1 41179U 15081A   26175.92300504  .00000409  00000+0  12279-3 0  9997","line2":"2 41179  47.0058 325.4307 0002860 236.8002 123.2610 14.58866611558884"},{"name":"ORBCOMM FM116","line1":"1 41189U 15081L   26175.42415645  .00000349  00000+0  10988-3 0  9994","line2":"2 41189  47.0011 236.4033 0000611 140.7589 219.3341 14.58891022559991"},{"name":"ORBCOMM FM117","line1":"1 41188U 15081K   26176.19715664  .00000265  00000+0  92277-4 0  9991","line2":"2 41188  46.9999 142.9570 0003660 255.2052 104.8429 14.58870148561291"},{"name":"PRATHAM","line1":"1 41783U 16059A   26176.22287371  .00000579  00000+0  11052-3 0  9990","line2":"2 41783  97.8323 172.7277 0030885 190.4058 169.6512 14.67202906520690"},{"name":"RESOURCESAT-2A","line1":"1 41877U 16074A   26176.30549814  .00000039  00000+0  37900-4 0  9995","line2":"2 41877  98.7524 249.7437 0003222  68.8639 291.2883 14.21618850495455"},{"name":"SINOD-D 1","line1":"1 40968U 15058E   26176.23430700  .00003125  00000+0  25496-3 0  9996","line2":"2 40968  64.7741 233.7115 0119589  49.8991 311.2532 14.95947479117862"},{"name":"YUNHAI-1 01","line1":"1 41857U 16068A   26176.33875145  .00000368  00000+0  15211-3 0  9993","line2":"2 41857  98.5848 187.2694 0005713  36.1880 323.9689 14.32428415502997"},{"name":"ZIYUAN 3-02 (ZY 3-02)","line1":"1 41556U 16033A   26176.28034924  .00006007  00000+0  27146-3 0  9993","line2":"2 41556  97.3837 251.8991 0012423 259.5888 100.3948 15.21248950559216"}]}