OBJECT_NAME,OBJECT_ID,EPOCH,MEAN_MOTION,ECCENTRICITY,INCLINATION,RA_OF_ASC_NODE,ARG_OF_PERICENTER,MEAN_ANOMALY,EPHEMERIS_TYPE,CLASSIFICATION_TYPE,NORAD_CAT_ID,ELEMENT_SET_NO,REV_AT_EPOCH,BSTAR,MEAN_MOTION_DOT,MEAN_MOTION_DDOT
COSMOS 2507 (RODNIK-S 13),2015-050A,2026-06-25T06:45:36.216288,12.42926954,.00098382,82.4922,74.6303,339.4450,20.6233,0,U,40920,999,48786,.16814565E-3,.33E-6,0
COSMOS 2508 (RODNIK-S 14),2015-050B,2026-06-25T07:36:51.596640,12.42914318,.00148564,82.4874,73.1101,9.9955,350.1418,0,U,40921,999,48785,-.93053688E-4,-.3E-7,0
COSMOS 2509 (RODNIK-S 15),2015-050C,2026-06-25T06:10:31.259136,12.42883806,.00154841,82.4882,73.2506,26.4826,333.7042,0,U,40922,999,48788,-.73050791E-4,0,0
LQSAT,2015-057A,2026-06-25T06:26:20.181696,14.76790870,.0015472,97.6685,169.2433,244.4737,115.4874,0,U,40958,999,57650,.57708105E-4,.357E-5,0
LINGQIAO VIDEO A,2015-057B,2026-06-25T06:51:29.111040,14.77402279,.00152244,97.6625,170.6883,241.3447,118.6234,0,U,40959,999,57660,.11323355E-3,.758E-5,0
LINGQIAO VIDEO B,2015-057C,2026-06-25T06:17:03.338880,14.77506457,.00154007,97.6590,171.8271,241.3594,118.6068,0,U,40960,999,57664,.20398004E-4,.97E-6,0
JILIN-1,2015-057D,2026-06-25T06:31:21.446400,14.78172160,.001559,97.6508,175.2370,233.9826,125.9942,0,U,40961,999,57680,.11414431E-3,.78E-5,0
FOX-1A (AO-85),2015-058D,2026-06-24T17:32:12.626016,14.90997570,.01308801,64.7739,255.5404,53.6729,307.6381,0,U,40967,999,11469,.16308393E-3,.1723E-4,0
SINOD-D 1,2015-058E,2026-06-25T05:37:24.124800,14.95947479,.01195896,64.7741,233.7115,49.8991,311.2532,0,U,40968,999,11786,.25496127E-3,.3125E-4,0
ELEKTRO-L 2,2015-074A,2026-06-23T22:53:22.057728,1.00271133,.00007659,6.7110,70.4435,277.7123,252.7626,0,U,41105,999,3857,0,-.116E-5,0
DAMPE,2015-078A,2026-06-25T06:34:33.002112,15.30802890,.00135089,97.4563,181.7810,52.1917,308.0544,0,U,41173,999,58578,.34168073E-4,.941E-5,0
ORBCOMM FM114,2015-081A,2026-06-24T22:09:07.635456,14.58866611,.00028607,47.0058,325.4307,236.8002,123.2610,0,U,41179,999,55888,.12278535E-3,.409E-5,0
ORBCOMM FM110,2015-081D,2026-06-24T20:13:37.705728,14.58890386,.00025549,47.0030,325.2449,122.0857,238.0278,0,U,41182,999,55874,.15591008E-3,.566E-5,0
ORBCOMM FM112,2015-081F,2026-06-24T21:09:20.005920,14.58912487,.00040577,46.9977,233.8630,248.5374,111.5080,0,U,41184,999,56007,.11272206E-3,.362E-5,0
ORBCOMM FM113,2015-081G,2026-06-24T20:36:02.113920,14.58864475,.0002552,46.9996,234.3526,251.1934,108.8675,0,U,41185,999,56005,.86126666E-4,.236E-5,0
ORBCOMM FM108,2015-081J,2026-06-24T22:59:00.841632,14.58881881,.00031379,47.0038,145.4578,251.0039,109.0507,0,U,41187,999,56121,.12507478E-3,.42E-5,0
ORBCOMM FM117,2015-081K,2026-06-25T04:43:54.333696,14.58870148,.000366,46.9999,142.9570,255.2052,104.8429,0,U,41188,999,56129,.92277031E-4,.265E-5,0
ORBCOMM FM116,2015-081L,2026-06-24T10:10:47.117280,14.58891022,.00006112,47.0011,236.4033,140.7589,219.3341,0,U,41189,999,55999,.10988214E-3,.349E-5,0
CHUBUSAT-2,2016-012B,2026-06-24T16:36:08.051904,15.20948863,.00087192,30.9971,272.1387,154.5756,205.5315,0,U,41338,999,56956,.21739828E-3,.5055E-4,0
CHUBUSAT-3,2016-012C,2026-06-24T16:44:44.685888,15.18612705,.00091991,31.0054,281.8625,141.0993,219.0311,0,U,41339,999,56934,.18296134E-3,.3993E-4,0
HORYU-4,2016-012D,2026-06-24T22:09:51.695136,16.04340254,.00084519,30.9835,21.9003,319.1648,40.8382,0,U,41340,999,57205,.12684942E-2,.887715E-2,.38475701E-3
ZIYUAN 3-02 (ZY 3-02),2016-033A,2026-06-25T06:43:42.174336,15.21248950,.00124235,97.3837,251.8991,259.5888,100.3948,0,U,41556,999,55921,.27146445E-3,.6007E-4,0
CARTOSAT-2C,2016-040A,2026-06-25T07:02:55.298976,15.19247935,.00104559,97.4486,236.1600,106.7662,253.4721,0,U,41599,999,55494,.18648713E-3,.3867E-4,0
LAPAN-A3,2016-040E,2026-06-25T06:49:37.040736,15.33152345,.00098558,97.1489,172.1639,357.7807,2.3390,0,U,41603,999,55605,.12601442E-3,.3966E-4,0
GAOFEN-3,2016-049A,2026-06-25T06:29:38.225184,14.42216336,.00015717,98.4016,183.9347,97.6337,262.5031,0,U,41727,999,51981,.18926158E-4,.19E-6,0
PRATHAM,2016-059A,2026-06-25T05:20:56.288544,14.67202906,.00308859,97.8323,172.7277,190.4058,169.6512,0,U,41783,999,52069,.11051845E-3,.579E-5,0
ALSAT-1N,2016-059G,2026-06-25T06:54:12.369888,14.69318034,.00262013,97.8009,179.2779,158.8525,201.3771,0,U,41789,999,52119,.13733582E-3,.768E-5,0
CAS-2T & KS-1Q,2016-066G,2026-06-25T04:55:55.801344,14.44718564,.03428891,98.3820,251.8502,105.2370,258.6999,0,U,41847,999,50595,.22533001E-3,.1561E-4,0
YUNHAI-1 01,2016-068A,2026-06-25T08:07:48.125280,14.32428415,.00057135,98.5848,187.2694,36.1880,323.9689,0,U,41857,999,50299,.15210778E-3,.368E-5,0
RESOURCESAT-2A,2016-074A,2026-06-25T07:19:55.039296,14.21618850,.0003222,98.7524,249.7437,68.8639,291.2883,0,U,41877,999,49545,.37900322E-4,.39E-6,0
